[{"OBJECT_NAME":"ONEWEB-0044","OBJECT_ID":"2020-008V","EPOCH":"2026-03-05T22:05:23.078400","MEAN_MOTION":13.10371543,"ECCENTRICITY":0.00016489,"INCLINATION":87.8774,"RA_OF_ASC_NODE":56.822,"ARG_OF_PERICENTER":88.6044,"MEAN_ANOMALY":271.5272,"EPHEMERIS_TYPE":0,"CLASSIFICATION_TYPE":"U","NORAD_CAT_ID":45150,"ELEMENT_SET_NO":999,"REV_AT_EPOCH":29495,"BSTAR":-0.0018600747,"MEAN_MOTION_DOT":-6.37e-6,"MEAN_MOTION_DDOT":0},{"OBJECT_NAME":"ONEWEB-0045","OBJECT_ID":"2020-008W","EPOCH":"2026-03-05T22:25:08.410368","MEAN_MOTION":13.11414113,"ECCENTRICITY":0.00017435,"INCLINATION":87.8863,"RA_OF_ASC_NODE":41.5821,"ARG_OF_PERICENTER":85.1007,"MEAN_ANOMALY":275.032,"EPHEMERIS_TYPE":0,"CLASSIFICATION_TYPE":"U","NORAD_CAT_ID":45151,"ELEMENT_SET_NO":999,"REV_AT_EPOCH":29687,"BSTAR":0.00060544186,"MEAN_MOTION_DOT":2.27e-6,"MEAN_MOTION_DDOT":0},{"OBJECT_NAME":"ONEWEB-0047","OBJECT_ID":"2020-008X","EPOCH":"2026-03-05T23:45:47.575008","MEAN_MOTION":13.10373468,"ECCENTRICITY":0.00018752,"INCLINATION":87.8765,"RA_OF_ASC_NODE":56.811,"ARG_OF_PERICENTER":91.7375,"MEAN_ANOMALY":268.3967,"EPHEMERIS_TYPE":0,"CLASSIFICATION_TYPE":"U","NORAD_CAT_ID":45152,"ELEMENT_SET_NO":999,"REV_AT_EPOCH":29468,"BSTAR":-0.0013842494,"MEAN_MOTION_DOT":-4.71e-6,"MEAN_MOTION_DDOT":0},{"OBJECT_NAME":"ONEWEB-0048","OBJECT_ID":"2020-008Y","EPOCH":"2026-03-05T23:38:36.779424","MEAN_MOTION":13.10369233,"ECCENTRICITY":0.00019287,"INCLINATION":87.8759,"RA_OF_ASC_NODE":56.8396,"ARG_OF_PERICENTER":90.4755,"MEAN_ANOMALY":269.6593,"EPHEMERIS_TYPE":0,"CLASSIFICATION_TYPE":"U","NORAD_CAT_ID":45153,"ELEMENT_SET_NO":999,"REV_AT_EPOCH":29429,"BSTAR":-0.00044578456,"MEAN_MOTION_DOT":-1.43e-6,"MEAN_MOTION_DDOT":0},{"OBJECT_NAME":"ONEWEB-0049","OBJECT_ID":"2020-008Z","EPOCH":"2026-03-05T23:43:11.494272","MEAN_MOTION":13.10369271,"ECCENTRICITY":0.00018351,"INCLINATION":87.8759,"RA_OF_ASC_NODE":56.8266,"ARG_OF_PERICENTER":72.837,"MEAN_ANOMALY":287.2959,"EPHEMERIS_TYPE":0,"CLASSIFICATION_TYPE":"U","NORAD_CAT_ID":45154,"ELEMENT_SET_NO":999,"REV_AT_EPOCH":29451,"BSTAR":-0.0010338435,"MEAN_MOTION_DOT":-3.48e-6,"MEAN_MOTION_DDOT":0},{"OBJECT_NAME":"ONEWEB-0051","OBJECT_ID":"2020-008AA","EPOCH":"2026-03-05T22:22:42.214656","MEAN_MOTION":13.1141482,"ECCENTRICITY":0.00018241,"INCLINATION":87.8859,"RA_OF_ASC_NODE":41.5958,"ARG_OF_PERICENTER":85.7447,"MEAN_ANOMALY":274.389,"EPHEMERIS_TYPE":0,"CLASSIFICATION_TYPE":"U","NORAD_CAT_ID":45155,"ELEMENT_SET_NO":999,"REV_AT_EPOCH":29755,"BSTAR":0.00082237791,"MEAN_MOTION_DOT":3.04e-6,"MEAN_MOTION_DDOT":0},{"OBJECT_NAME":"ONEWEB-0052","OBJECT_ID":"2020-008AB","EPOCH":"2026-03-05T23:42:30.004992","MEAN_MOTION":13.09870888,"ECCENTRICITY":0.00017555,"INCLINATION":87.8767,"RA_OF_ASC_NODE":56.7985,"ARG_OF_PERICENTER":72.3916,"MEAN_ANOMALY":287.7403,"EPHEMERIS_TYPE":0,"CLASSIFICATION_TYPE":"U","NORAD_CAT_ID":45156,"ELEMENT_SET_NO":999,"REV_AT_EPOCH":29442,"BSTAR":-0.0010208352,"MEAN_MOTION_DOT":-3.41e-6,"MEAN_MOTION_DDOT":0},{"OBJECT_NAME":"ONEWEB-0053","OBJECT_ID":"2020-008AC","EPOCH":"2026-03-05T23:09:57.930048","MEAN_MOTION":13.10371917,"ECCENTRICITY":0.00014186,"INCLINATION":87.8764,"RA_OF_ASC_NODE":56.8404,"ARG_OF_PERICENTER":76.9679,"MEAN_ANOMALY":283.1607,"EPHEMERIS_TYPE":0,"CLASSIFICATION_TYPE":"U","NORAD_CAT_ID":45157,"ELEMENT_SET_NO":999,"REV_AT_EPOCH":29439,"BSTAR":0.0017678034,"MEAN_MOTION_DOT":6.3e-6,"MEAN_MOTION_DDOT":0},{"OBJECT_NAME":"ONEWEB-0054","OBJECT_ID":"2020-008AD","EPOCH":"2026-03-05T22:10:10.247808","MEAN_MOTION":13.10373179,"ECCENTRICITY":0.00018699,"INCLINATION":87.877,"RA_OF_ASC_NODE":56.8234,"ARG_OF_PERICENTER":84.574,"MEAN_ANOMALY":275.5601,"EPHEMERIS_TYPE":0,"CLASSIFICATION_TYPE":"U","NORAD_CAT_ID":45158,"ELEMENT_SET_NO":999,"REV_AT_EPOCH":29450,"BSTAR":-0.0018252041,"MEAN_MOTION_DOT":-6.24e-6,"MEAN_MOTION_DDOT":0},{"OBJECT_NAME":"ONEWEB-0056","OBJECT_ID":"2020-008AE","EPOCH":"2026-03-05T23:32:39.079104","MEAN_MOTION":13.10370013,"ECCENTRICITY":0.00019489,"INCLINATION":87.8769,"RA_OF_ASC_NODE":56.8119,"ARG_OF_PERICENTER":81.4993,"MEAN_ANOMALY":278.6355,"EPHEMERIS_TYPE":0,"CLASSIFICATION_TYPE":"U","NORAD_CAT_ID":45159,"ELEMENT_SET_NO":999,"REV_AT_EPOCH":29466,"BSTAR":6.4022549e-5,"MEAN_MOTION_DOT":3.5e-7,"MEAN_MOTION_DDOT":0},{"OBJECT_NAME":"ONEWEB-0057","OBJECT_ID":"2020-008AF","EPOCH":"2026-03-05T23:43:37.913664","MEAN_MOTION":13.10359475,"ECCENTRICITY":0.00015507,"INCLINATION":87.8765,"RA_OF_ASC_NODE":56.8196,"ARG_OF_PERICENTER":79.1689,"MEAN_ANOMALY":280.9613,"EPHEMERIS_TYPE":0,"CLASSIFICATION_TYPE":"U","NORAD_CAT_ID":45160,"ELEMENT_SET_NO":999,"REV_AT_EPOCH":29483,"BSTAR":-0.001122182,"MEAN_MOTION_DOT":-3.79e-6,"MEAN_MOTION_DDOT":0},{"OBJECT_NAME":"ONEWEB-0058","OBJECT_ID":"2020-008AG","EPOCH":"2026-03-05T21:34:32.580480","MEAN_MOTION":13.10370322,"ECCENTRICITY":0.00020012,"INCLINATION":87.8763,"RA_OF_ASC_NODE":56.8469,"ARG_OF_PERICENTER":92.3213,"MEAN_ANOMALY":267.8143,"EPHEMERIS_TYPE":0,"CLASSIFICATION_TYPE":"U","NORAD_CAT_ID":45161,"ELEMENT_SET_NO":999,"REV_AT_EPOCH":29489,"BSTAR":0.0010221225,"MEAN_MOTION_DOT":3.69e-6,"MEAN_MOTION_DDOT":0},{"OBJECT_NAME":"ONEWEB-0059","OBJECT_ID":"2020-008AH","EPOCH":"2026-03-05T21:29:33.499968","MEAN_MOTION":13.10371463,"ECCENTRICITY":0.00018094,"INCLINATION":87.8764,"RA_OF_ASC_NODE":56.8476,"ARG_OF_PERICENTER":88.7761,"MEAN_ANOMALY":271.3574,"EPHEMERIS_TYPE":0,"CLASSIFICATION_TYPE":"U","NORAD_CAT_ID":45162,"ELEMENT_SET_NO":999,"REV_AT_EPOCH":29479,"BSTAR":0.0015414359,"MEAN_MOTION_DOT":5.51e-6,"MEAN_MOTION_DDOT":0},{"OBJECT_NAME":"ONEWEB-0062","OBJECT_ID":"2020-008AJ","EPOCH":"2026-03-05T22:06:34.996896","MEAN_MOTION":13.10373099,"ECCENTRICITY":0.00021485,"INCLINATION":87.8775,"RA_OF_ASC_NODE":56.825,"ARG_OF_PERICENTER":96.3212,"MEAN_ANOMALY":263.816,"EPHEMERIS_TYPE":0,"CLASSIFICATION_TYPE":"U","NORAD_CAT_ID":45163,"ELEMENT_SET_NO":999,"REV_AT_EPOCH":29466,"BSTAR":-0.0017170275,"MEAN_MOTION_DOT":-5.87e-6,"MEAN_MOTION_DDOT":0},{"OBJECT_NAME":"ONEWEB-0065","OBJECT_ID":"2020-008AK","EPOCH":"2026-03-05T22:50:37.916736","MEAN_MOTION":13.10376231,"ECCENTRICITY":0.0001776,"INCLINATION":87.8771,"RA_OF_ASC_NODE":56.8275,"ARG_OF_PERICENTER":73.8808,"MEAN_ANOMALY":286.2515,"EPHEMERIS_TYPE":0,"CLASSIFICATION_TYPE":"U","NORAD_CAT_ID":45164,"ELEMENT_SET_NO":999,"REV_AT_EPOCH":29436,"BSTAR":0.0012276529,"MEAN_MOTION_DOT":4.41e-6,"MEAN_MOTION_DDOT":0},{"OBJECT_NAME":"ONEWEB-0066","OBJECT_ID":"2020-020A","EPOCH":"2026-03-05T22:00:44.313984","MEAN_MOTION":13.11415923,"ECCENTRICITY":0.00016552,"INCLINATION":87.8861,"RA_OF_ASC_NODE":41.6001,"ARG_OF_PERICENTER":86.7981,"MEAN_ANOMALY":273.3336,"EPHEMERIS_TYPE":0,"CLASSIFICATION_TYPE":"U","NORAD_CAT_ID":45424,"ELEMENT_SET_NO":999,"REV_AT_EPOCH":28914,"BSTAR":0.0012578761,"MEAN_MOTION_DOT":4.59e-6,"MEAN_MOTION_DDOT":0},{"OBJECT_NAME":"ONEWEB-0067","OBJECT_ID":"2020-020B","EPOCH":"2026-03-05T22:54:38.021472","MEAN_MOTION":13.11415706,"ECCENTRICITY":0.00016257,"INCLINATION":87.8868,"RA_OF_ASC_NODE":41.5015,"ARG_OF_PERICENTER":80.293,"MEAN_ANOMALY":279.8382,"EPHEMERIS_TYPE":0,"CLASSIFICATION_TYPE":"U","NORAD_CAT_ID":45425,"ELEMENT_SET_NO":999,"REV_AT_EPOCH":28920,"BSTAR":-0.0015653202,"MEAN_MOTION_DOT":-5.42e-6,"MEAN_MOTION_DDOT":0},{"OBJECT_NAME":"ONEWEB-0080","OBJECT_ID":"2020-020C","EPOCH":"2026-03-05T21:17:58.074144","MEAN_MOTION":13.11416064,"ECCENTRICITY":0.0002124,"INCLINATION":87.8857,"RA_OF_ASC_NODE":41.6037,"ARG_OF_PERICENTER":91.6077,"MEAN_ANOMALY":268.5295,"EPHEMERIS_TYPE":0,"CLASSIFICATION_TYPE":"U","NORAD_CAT_ID":45426,"ELEMENT_SET_NO":999,"REV_AT_EPOCH":28916,"BSTAR":-0.0011325664,"MEAN_MOTION_DOT":-3.89e-6,"MEAN_MOTION_DDOT":0},{"OBJECT_NAME":"ONEWEB-0090","OBJECT_ID":"2020-020D","EPOCH":"2026-03-05T23:36:08.852256","MEAN_MOTION":13.11418081,"ECCENTRICITY":0.00018706,"INCLINATION":87.8852,"RA_OF_ASC_NODE":41.5857,"ARG_OF_PERICENTER":85.5138,"MEAN_ANOMALY":274.6204,"EPHEMERIS_TYPE":0,"CLASSIFICATION_TYPE":"U","NORAD_CAT_ID":45427,"ELEMENT_SET_NO":999,"REV_AT_EPOCH":28914,"BSTAR":0.00037184693,"MEAN_MOTION_DOT":1.44e-6,"MEAN_MOTION_DDOT":0},{"OBJECT_NAME":"ONEWEB-0061","OBJECT_ID":"2020-020E","EPOCH":"2026-03-05T22:32:16.196640","MEAN_MOTION":13.1141623,"ECCENTRICITY":0.00018437,"INCLINATION":87.8858,"RA_OF_ASC_NODE":41.5802,"ARG_OF_PERICENTER":85.0977,"MEAN_ANOMALY":275.0361,"EPHEMERIS_TYPE":0,"CLASSIFICATION_TYPE":"U","NORAD_CAT_ID":45428,"ELEMENT_SET_NO":999,"REV_AT_EPOCH":28909,"BSTAR":0.00018974015,"MEAN_MOTION_DOT":8.0e-7,"MEAN_MOTION_DDOT":0},{"OBJECT_NAME":"ONEWEB-0081","OBJECT_ID":"2020-020F","EPOCH":"2026-03-05T22:05:36.634560","MEAN_MOTION":13.11415831,"ECCENTRICITY":0.00016345,"INCLINATION":87.8865,"RA_OF_ASC_NODE":41.5993,"ARG_OF_PERICENTER":83.0554,"MEAN_ANOMALY":277.076,"EPHEMERIS_TYPE":0,"CLASSIFICATION_TYPE":"U","NORAD_CAT_ID":45429,"ELEMENT_SET_NO":999,"REV_AT_EPOCH":28920,"BSTAR":0.0015028924,"MEAN_MOTION_DOT":5.45e-6,"MEAN_MOTION_DDOT":0},{"OBJECT_NAME":"ONEWEB-0069","OBJECT_ID":"2020-020G","EPOCH":"2026-03-05T23:39:36.872352","MEAN_MOTION":13.11418211,"ECCENTRICITY":0.00017065,"INCLINATION":87.8862,"RA_OF_ASC_NODE":41.5802,"ARG_OF_PERICENTER":84.5944,"MEAN_ANOMALY":275.5379,"EPHEMERIS_TYPE":0,"CLASSIFICATION_TYPE":"U","NORAD_CAT_ID":45430,"ELEMENT_SET_NO":999,"REV_AT_EPOCH":28914,"BSTAR":0.00077406784,"MEAN_MOTION_DOT":2.87e-6,"MEAN_MOTION_DDOT":0},{"OBJECT_NAME":"ONEWEB-0031","OBJECT_ID":"2020-020H","EPOCH":"2026-03-05T22:59:18.957120","MEAN_MOTION":13.11415501,"ECCENTRICITY":0.00019488,"INCLINATION":87.8851,"RA_OF_ASC_NODE":41.605,"ARG_OF_PERICENTER":89.2244,"MEAN_ANOMALY":270.9107,"EPHEMERIS_TYPE":0,"CLASSIFICATION_TYPE":"U","NORAD_CAT_ID":45431,"ELEMENT_SET_NO":999,"REV_AT_EPOCH":28912,"BSTAR":-0.0015109313,"MEAN_MOTION_DOT":-5.23e-6,"MEAN_MOTION_DDOT":0}]
